IRIDIUM 39              
1 25042U 97069D   26020.32730610  .00001016  00000+0  25933-3 0  9998
2 25042  86.3930 118.0848 0015788 304.4370  55.5342 14.49572950480411
IRIDIUM 38              
1 25043U 97069E   26020.31025524  .00000761  00000+0  24339-3 0  9994
2 25043  86.4000 141.8929 0003976 100.5903 259.5743 14.38360129477168
IRIDIUM 42              
1 25077U 97077A   26020.30564886  .00000650  00000+0  21473-3 0  9991
2 25077  86.4007 148.3318 0002773 103.7458 256.4048 14.36571557472368
IRIDIUM 44              
1 25078U 97077B   26020.29874167  .00000530  00000+0  16058-3 0  9996
2 25078  86.3989 129.6870 0003425  66.6478 293.5081 14.40469324474955
IRIDIUM 45              
1 25104U 97082A   26020.26324769  .00044973  00000+0  11989-2 0  9993
2 25104  86.3557 301.6582 0090433 231.1850 128.1303 15.33831316485179
IRIDIUM 24              
1 25105U 97082B   26020.26687688  .00000879  00000+0  25965-3 0  9993
2 25105  86.3932 348.2039 0013577  81.7823 278.4917 14.42374193474503
IRIDIUM 51              
1 25262U 98018A   26020.29043559  .00275070  00000+0  19207-2 0  9991
2 25262  86.3722 306.3122 0046882 116.0785 244.5324 15.72031708480684
IRIDIUM 57              
1 25273U 98019B   26020.16511041  .00000418  00000+0  13712-3 0  9994
2 25273  86.3920  54.2647 0002328  91.0692 269.0771 14.36082049455923
